     2.10           G: GLONASS NAV DATA                     RINEX VERSION / TYPE
teqc  2015Jun23                         20220412 01:32:05UTCPGM / RUN BY / DATE
Linux 2.4.21-27.ELsmp|Opteron|gcc -static|Linux x86_64|=+   COMMENT
  2022     3    25   -9.313225746155D-10                    CORR TO SYSTEM TIME
                                                            END OF HEADER
 4 22  3 26 15 45  0.0 1.337174326181D-04 1.818989403546D-12 5.580000000000D+04
    6.998371093750D+03-2.656116485596D-01 9.313225746155D-10 0.000000000000D+00
    2.339071484375D+04-9.937210083008D-01 2.793967723846D-09 6.000000000000D+00
    7.436131835938D+03 3.389678001404D+00 9.313225746155D-10 0.000000000000D+00
 5 22  3 26 15 45  0.0 9.004957973957D-05 9.094947017729D-13 5.580000000000D+04
    1.379703662109D+04 7.103853225708D-01 0.000000000000D+00 0.000000000000D+00
    1.914544042969D+04 1.137439727783D+00 1.862645149231D-09 1.000000000000D+00
   -9.696683105469D+03 3.248926162720D+00 2.793967723846D-09 0.000000000000D+00
17 22  3 26 15 45  0.0 5.126232281327D-04 2.728484105319D-12 5.580000000000D+04
   -1.522008691406D+04 3.054056167603D-01 9.313225746155D-10 0.000000000000D+00
    2.039204882812D+04-4.375267028809D-02 9.313225746155D-10 4.000000000000D+00
   -1.535211914062D+03-3.594447135925D+00 9.313225746155D-10 0.000000000000D+00
18 22  3 26 15 45  0.0 1.115454360843D-04 9.094947017729D-13 5.580000000000D+04
   -6.288596679688D+03-1.002404212952D+00 1.862645149231D-09 0.000000000000D+00
    2.001050878906D+04 1.734050750732D+00 2.793967723846D-09-3.000000000000D+00
    1.457301367188D+04-2.810674667358D+00 0.000000000000D+00 0.000000000000D+00
24 22  3 26 15 45  0.0 8.618645370007D-05 1.818989403546D-12 5.580000000000D+04
   -1.647225390625D+04 1.483983039856D+00-0.000000000000D+00 0.000000000000D+00
    9.039595214844D+03-1.844552993774D+00-9.313225746155D-10 2.000000000000D+00
   -1.723281445312D+04-2.384241104126D+00 9.313225746155D-10 0.000000000000D+00
15 22  3 26 15 45  0.0 9.728409349918D-05-9.094947017729D-13 5.595000000000D+04
    4.146006347656D+03-3.075839996338D+00-9.313225746155D-10 0.000000000000D+00
    1.118443115234D+04-2.806215286255D-01-0.000000000000D+00 0.000000000000D+00
   -2.253332763672D+04-7.046108245850D-01 2.793967723846D-09 0.000000000000D+00
19 22  3 26 15 45  0.0-1.830449327826D-04-9.094947017729D-13 5.748000000000D+04
    5.005117675781D+03-1.849352836609D+00 9.313225746155D-10 0.000000000000D+00
    1.017101416016D+04 2.531824111938D+00 2.793967723846D-09 3.000000000000D+00
    2.285038867188D+04-7.213830947876D-01-0.000000000000D+00 0.000000000000D+00
 3 22  3 26 16 15  0.0 5.379132926464D-05 9.094947017729D-13 5.760000000000D+04
   -6.198855468750D+03-1.629035949707D+00 1.862645149231D-09 0.000000000000D+00
    1.020558740234D+04-2.613763809204D+00 1.862645149231D-09 5.000000000000D+00
    2.259661523438D+04 7.301788330078D-01-9.313225746155D-10 0.000000000000D+00
14 22  3 26 16 15  0.0 7.581524550915D-05 0.000000000000D+00 5.760000000000D+04
   -1.885758056641D+04-2.048583030701D+00-0.000000000000D+00 0.000000000000D+00
    8.327783203125D+03 2.171640396118D-01-1.862645149231D-09-7.000000000000D+00
   -1.502635107422D+04 2.688838958740D+00 0.000000000000D+00 0.000000000000D+00
 4 22  3 26 16 15  0.0 1.337211579084D-04 1.818989403546D-12 5.760000000000D+04
    6.028940429688D+03-8.327016830444D-01 1.862645149231D-09 0.000000000000D+00
    2.102116259766D+04-1.600799560547D+00 2.793967723846D-09 6.000000000000D+00
    1.317193750000D+04 2.942203521729D+00 9.313225746155D-10 0.000000000000D+00
 5 22  3 26 16 15  0.0 9.005051106215D-05 9.094947017729D-13 5.760000000000D+04
    1.484960791016D+04 4.171485900879D-01 9.313225746155D-10 0.000000000000D+00
    2.044685498047D+04 3.142137527466D-01 1.862645149231D-09 1.000000000000D+00
   -3.549499023438D+03 3.536935806274D+00 2.793967723846D-09 0.000000000000D+00
15 22  3 26 16 15  0.0 9.728316217661D-05-9.094947017729D-13 5.760000000000D+04
   -1.490984863281D+03-3.136034011841D+00-0.000000000000D+00 0.000000000000D+00
    1.108062402344D+04 1.685037612915D-01-9.313225746155D-10 0.000000000000D+00
   -2.291300195312D+04 2.855005264282D-01 2.793967723846D-09 0.000000000000D+00
17 22  3 26 16 15  0.0 5.126288160682D-04 2.728484105319D-12 5.760000000000D+04
   -1.428871484375D+04 6.884555816650D-01 9.313225746155D-10 0.000000000000D+00
    1.959122998047D+04-8.583545684814D-01 0.000000000000D+00 4.000000000000D+00
   -7.861970214844D+03-3.389537811279D+00 9.313225746155D-10 0.000000000000D+00
18 22  3 26 16 15  0.0 1.115482300520D-04 9.094947017729D-13 5.760000000000D+04
   -7.515904785156D+03-3.780498504639D-01 1.862645149231D-09 0.000000000000D+00
    2.268522167969D+04 1.195504188538D+00 1.862645149231D-09-3.000000000000D+00
    9.017707519531D+03-3.321953773499D+00 0.000000000000D+00 0.000000000000D+00
19 22  3 26 16 15  0.0-1.830421388149D-04-9.094947017729D-13 5.760000000000D+04
    2.159672851562D+03-1.296464920044D+00 1.862645149231D-09 0.000000000000D+00
    1.476925292969D+04 2.527227401733D+00 2.793967723846D-09 3.000000000000D+00
    2.068545849609D+04-1.668475151062D+00-0.000000000000D+00 0.000000000000D+00
19 22  3 26 16 45  0.0-1.830449327826D-04-9.094947017729D-13 5.940000000000D+04
    3.602236328125D+02-7.063579559326D-01 1.862645149231D-09 0.000000000000D+00
    1.908561669922D+04 2.218573570251D+00 1.862645149231D-09 3.000000000000D+00
    1.692147119141D+04-2.486582756042D+00 0.000000000000D+00 0.000000000000D+00
 5 22  3 26 16 45  0.0 9.005237370729D-05 9.094947017729D-13 5.940000000000D+04
    1.515961572266D+04-1.065979003906D-01 1.862645149231D-09 0.000000000000D+00
    2.033053759766D+04-4.197444915771D-01 2.793967723846D-09 1.000000000000D+00
    2.871896972656D+03 3.551675796509D+00 1.862645149231D-09 0.000000000000D+00
 4 22  3 26 16 45  0.0 1.337248831987D-04 1.818989403546D-12 5.940000000000D+04
    3.954812988281D+03-1.475598335266D+00 1.862645149231D-09 0.000000000000D+00
    1.778301757812D+04-1.950686454773D+00 2.793967723846D-09 6.000000000000D+00
    1.789180859375D+04 2.268218040466D+00-0.000000000000D+00 0.000000000000D+00
14 22  3 26 16 45  0.0 7.581617683172D-05 0.000000000000D+00 5.940000000000D+04
   -2.187260351562D+04-1.277905464172D+00 0.000000000000D+00 0.000000000000D+00
    8.887755859375D+03 3.680658340454D-01-1.862645149231D-09-7.000000000000D+00
   -9.668195312500D+03 3.226002693176D+00-0.000000000000D+00 0.000000000000D+00
15 22  3 26 16 45  0.0 9.728223085403D-05-9.094947017729D-13 5.940000000000D+04
   -6.960114257812D+03-2.891787528992D+00-0.000000000000D+00 0.000000000000D+00
    1.177020507812D+04 5.830965042114D-01-9.313225746155D-10 0.000000000000D+00
   -2.151881933594D+04 1.253516197205D+00 1.862645149231D-09 0.000000000000D+00
17 22  3 26 16 45  0.0 5.126334726810D-04 2.728484105319D-12 5.940000000000D+04
   -1.289793359375D+04 8.126029968262D-01 0.000000000000D+00 0.000000000000D+00
    1.729299462891D+04-1.687719345093D+00-0.000000000000D+00 4.000000000000D+00
   -1.357956787109D+04-2.922019958496D+00 9.313225746155D-10 0.000000000000D+00
18 22  3 26 16 45  0.0 1.115510240197D-04 9.094947017729D-13 5.940000000000D+04
   -7.739015136719D+03 9.822463989258D-02 1.862645149231D-09 0.000000000000D+00
    2.418311181641D+04 4.395055770874D-01 9.313225746155D-10-3.000000000000D+00
    2.767882324219D+03-3.577384948730D+00 9.313225746155D-10 0.000000000000D+00
 4 22  3 26 17 15  0.0 1.337286084890D-04 1.818989403546D-12 6.120000000000D+04
    7.373569335938D+02-2.084253311157D+00 2.793967723846D-09 0.000000000000D+00
    1.416970458984D+04-2.017116546631D+00 1.862645149231D-09 6.000000000000D+00
    2.123261523438D+04 1.419831275940D+00-0.000000000000D+00 0.000000000000D+00
18 22  3 26 17 15  0.0 1.115547493100D-04 9.094947017729D-13 6.120000000000D+04
   -7.296158203125D+03 3.527889251709D-01 9.313225746155D-10 0.000000000000D+00
    2.419301660156D+04-4.398031234741D-01 0.000000000000D+00-3.000000000000D+00
   -3.695126464844D+03-3.557270050049D+00 9.313225746155D-10 0.000000000000D+00
 5 22  3 26 17 15  0.0 9.005330502987D-05 9.094947017729D-13 6.120000000000D+04
    1.436769238281D+04-7.929039001465D-01 1.862645149231D-09 0.000000000000D+00
    1.904777294922D+04-9.681749343872D-01 2.793967723846D-09 1.000000000000D+00
    9.071617675781D+03 3.292264938354D+00 9.313225746155D-10 0.000000000000D+00
14 22  3 26 17 15  0.0 7.581617683172D-05 0.000000000000D+00 6.120000000000D+04
   -2.340632080078D+04-4.214200973511D-01 0.000000000000D+00 0.000000000000D+00
    9.509713378906D+03 2.819232940674D-01-1.862645149231D-09-7.000000000000D+00
   -3.562778320312D+03 3.513754844666D+00-9.313225746155D-10 0.000000000000D+00
15 22  3 26 17 15  0.0 9.728129953146D-05-0.000000000000D+00 6.120000000000D+04
   -1.174029492188D+04-2.380353927612D+00-0.000000000000D+00 0.000000000000D+00
    1.309821142578D+04 8.625507354736D-01-9.313225746155D-10 0.000000000000D+00
   -1.845875439453D+04 2.124437332153D+00 9.313225746155D-10 0.000000000000D+00
17 22  3 26 17 15  0.0 5.126381292939D-04 2.728484105319D-12 6.120000000000D+04
   -1.151715234375D+04 6.819362640381D-01-0.000000000000D+00 0.000000000000D+00
    1.357786718750D+04-2.413497924805D+00-9.313225746155D-10 4.000000000000D+00
   -1.824514111328D+04-2.228260040283D+00 9.313225746155D-10 0.000000000000D+00
19 22  3 26 17 15  0.0-1.830477267504D-04-9.094947017729D-13 6.120000000000D+04
   -4.289697265625D+02-1.919384002686D-01 2.793967723846D-09 0.000000000000D+00
    2.258703369141D+04 1.629629135132D+00 1.862645149231D-09 3.000000000000D+00
    1.184938818359D+04-3.112479209900D+00 0.000000000000D+00 0.000000000000D+00
19 22  3 26 17 45  0.0-1.830495893955D-04-9.094947017729D-13 6.300000000000D+04
   -4.345361328125D+02 1.506338119507D-01 1.862645149231D-09 0.000000000000D+00
    2.482443505859D+04 8.287601470947D-01 9.313225746155D-10 3.000000000000D+00
    5.861283691406D+03-3.497773170471D+00 0.000000000000D+00 0.000000000000D+00
